[{"OBJECT_NAME":"ONEWEB-0525","OBJECT_ID":"2022-138AG","EPOCH":"2026-03-09T18:22:28.913088","MEAN_MOTION":13.19725056,"ECCENTRICITY":0.00017127,"INCLINATION":87.9231,"RA_OF_ASC_NODE":324.7724,"ARG_OF_PERICENTER":90.0733,"MEAN_ANOMALY":270.0596,"EPHEMERIS_TYPE":0,"CLASSIFICATION_TYPE":"U","NORAD_CAT_ID":54143,"ELEMENT_SET_NO":999,"REV_AT_EPOCH":16371,"BSTAR":-0.00047346633,"MEAN_MOTION_DOT":-1.77e-6,"MEAN_MOTION_DDOT":0},{"OBJECT_NAME":"COSMOS 963","OBJECT_ID":"1977-109A","EPOCH":"2026-03-09T20:17:46.784832","MEAN_MOTION":13.17654828,"ECCENTRICITY":0.0014961,"INCLINATION":82.9355,"RA_OF_ASC_NODE":336.2952,"ARG_OF_PERICENTER":328.6045,"MEAN_ANOMALY":100.4048,"EPHEMERIS_TYPE":0,"CLASSIFICATION_TYPE":"U","NORAD_CAT_ID":10491,"ELEMENT_SET_NO":999,"REV_AT_EPOCH":32262,"BSTAR":-8.3269377e-5,"MEAN_MOTION_DOT":-2.0e-7,"MEAN_MOTION_DDOT":0}]
